{"type": "FeatureCollection", "name": "TFD localities Lom\u00e9 bbox subsample", "features": [{"type": "Feature", "properties": {"name": null, "place": null, "locality_id": "tfd:reference-cell:101-07-003"}, "geometry": {"type": "Polygon", "coordinates": [[[1.051683534373923, 6.302559547393114], [1.0469241, 6.301839293875727], [1.042164665626077, 6.302559547393114], [1.038129811991203, 6.304610661210543], [1.03543380898525, 6.307680384725258], [1.034487098626545, 6.31130139325206], [1.03543380898525, 6.314922426419546], [1.038129811991203, 6.317992209422139], [1.042164665626077, 6.32004338272745], [1.042626065812792, 6.320113209569696], [1.04302756, 6.317737123245796], [1.04523151, 6.317218013246303], [1.045242, 6.317215543246311], [1.04766393, 6.316645063246849], [1.0522673, 6.312369793250999], [1.0527592, 6.311912943251475], [1.05303616, 6.311655723251686], [1.05687985, 6.306811973256408], [1.057353025699734, 6.306471890613249], [1.055718388008797, 6.304610661210543], [1.051683534373923, 6.302559547393114]]]}}, {"type": "Feature", "properties": {"name": null, "place": null, "locality_id": "tfd:reference-cell:101-07-004"}, "geometry": {"type": "Polygon", "coordinates": [[[1.050542034373923, 6.277156363604882], [1.0457826, 6.276436144351454], [1.041023165626077, 6.277156363604882], [1.036988311991203, 6.279207379824618], [1.03429230898525, 6.282276957212695], [1.033345598626545, 6.285897793276785], [1.03429230898525, 6.289518653879175], [1.036988311991203, 6.292588290507949], [1.041023165626076, 6.294639365968385], [1.0457826, 6.295359609760111], [1.050542034373923, 6.294639365968385], [1.054576888008796, 6.292588290507949], [1.05727289101475, 6.289518653879175], [1.058219601373455, 6.285897793276785], [1.05727289101475, 6.282276957212695], [1.054576888008796, 6.279207379824618], [1.050542034373923, 6.277156363604882]]]}}, {"type": "Feature", "properties": {"name": null, "place": null, "locality_id": "tfd:reference-cell:101-01-001"}, "geometry": {"type": "Polygon", "coordinates": [[[1.062814631546657, 6.237592354750604], [1.06054931869779, 6.236440928334404], [1.0578772, 6.236036601729951], [1.05520508130221, 6.236440928334404], [1.052939768453343, 6.237592354750604], [1.051426134799525, 6.239315590760388], [1.050894617343429, 6.241348293320244], [1.051426134799525, 6.243381003558267], [1.052939768453343, 6.24510425810478], [1.05520508130221, 6.246255703057711], [1.0578772, 6.246660037340331], [1.06054931869779, 6.246255703057711], [1.062814631546657, 6.24510425810478], [1.064328265200475, 6.243381003558267], [1.064859782656571, 6.241348293320244], [1.064328265200475, 6.239315590760388], [1.062814631546657, 6.237592354750604]]]}}, {"type": "Feature", "properties": {"name": null, "place": null, "locality_id": "tfd:reference-cell:101-01-002"}, "geometry": {"type": "Polygon", "coordinates": [[[1.07715541869779, 6.235834933858729], [1.0744833, 6.235430607709187], [1.07181118130221, 6.235834933858729], [1.069545868453343, 6.236986358979279], [1.068032234799525, 6.238709593049522], [1.067500717343429, 6.240742293320826], [1.068032234799525, 6.242775001269526], [1.069545868453343, 6.244498253874643], [1.07181118130221, 6.245649697530069], [1.0744833, 6.246054031357006], [1.07715541869779, 6.245649697530069], [1.079420731546657, 6.244498253874643], [1.080934365200474, 6.242775001269526], [1.081465882656571, 6.240742293320826], [1.080934365200474, 6.238709593049522], [1.079420731546657, 6.236986358979279], [1.07715541869779, 6.235834933858729]]]}}, {"type": "Feature", "properties": {"name": null, "place": null, "locality_id": "tfd:reference-cell:106-01-001"}, "geometry": {"type": "Polygon", "coordinates": [[[1.381269177330341, 6.23009615765239], [1.378726634159449, 6.228803837139932], [1.3757275, 6.22835003525906], [1.372728365840551, 6.228803837139932], [1.370185822669659, 6.23009615765239], [1.368486949636882, 6.232030257766193], [1.367890384761136, 6.234311693327106], [1.368486949636882, 6.236593138549246], [1.370185822669659, 6.238527261987315], [1.372728365840551, 6.23981960582404], [1.3757275, 6.24027341736614], [1.378726634159449, 6.23981960582404], [1.381269177330341, 6.238527261987315], [1.382968050363118, 6.236593138549246], [1.383564615238863, 6.234311693327106], [1.382968050363118, 6.232030257766193], [1.381269177330341, 6.23009615765239]]]}}, {"type": "Feature", "properties": {"name": null, "place": null, "locality_id": "tfd:reference-cell:106-01-002"}, "geometry": {"type": "Polygon", "coordinates": [[[1.29270203414762, 6.266437038280811], [1.2894049, 6.265938110831324], [1.28610776585238, 6.266437038280811], [1.283312590490139, 6.267857865992621], [1.281444914023852, 6.269984291972577], [1.28078907326498, 6.272492593289853], [1.281444914023852, 6.275000906357459], [1.283312590490139, 6.27712736070522], [1.28610776585238, 6.278548216784833], [1.2894049, 6.279047155984649], [1.29270203414762, 6.278548216784833], [1.295497209509861, 6.27712736070522], [1.297364885976149, 6.275000906357459], [1.29802072673502, 6.272492593289853], [1.297364885976149, 6.269984291972577], [1.295497209509861, 6.267857865992621], [1.29270203414762, 6.266437038280811]]]}}, {"type": "Feature", "properties": {"name": null, "place": null, "locality_id": "tfd:reference-cell:106-01-003"}, "geometry": {"type": "Polygon", "coordinates": [[[1.3778507, 6.242452379086537], [1.374851565840551, 6.242906192848874], [1.372309022669659, 6.244198547201771], [1.370610149636882, 6.246132697974885], [1.370013584761136, 6.248414193313358], [1.370610149636882, 6.250695698335611], [1.372309022669659, 6.25262987248743], [1.374851565840551, 6.253922250219032], [1.3778507, 6.254376073665146], [1.380849834159449, 6.253922250219032], [1.383392377330341, 6.25262987248743], [1.385091250363118, 6.250695698335611], [1.385687815238863, 6.248414193313358], [1.385091250363118, 6.246132697974885], [1.383392377330341, 6.244198547201771], [1.380849834159449, 6.242906192848874], [1.3778507, 6.242452379086537]]]}}, {"type": "Feature", "properties": {"name": null, "place": null, "locality_id": "tfd:reference-cell:106-01-004"}, "geometry": {"type": "Polygon", "coordinates": [[[1.279365809088558, 6.280303589133504], [1.27929476, 6.280744453281807], [1.272569435948516, 6.288258650810733], [1.272803814023851, 6.289155072739482], [1.274671490490139, 6.291281583396348], [1.27590314025823, 6.291907677249136], [1.28058493095139, 6.293174361421037], [1.2807638, 6.293201429529195], [1.28406093414762, 6.292702477111463], [1.286856109509861, 6.291281583396348], [1.288723785976148, 6.289155072739482], [1.28937962673502, 6.286646693276046], [1.288723785976148, 6.284138325590309], [1.286856109509861, 6.282011843367322], [1.28406093414762, 6.280590978086085], [1.2807638, 6.28009203744605], [1.279365809088558, 6.280303589133504]]]}}, {"type": "Feature", "properties": {"name": null, "place": null, "locality_id": "tfd:reference-cell:106-06-001"}, "geometry": {"type": "Polygon", "coordinates": [[[1.286824188008796, 6.242190941745307], [1.282789334373923, 6.240140067020322], [1.280263370159721, 6.239757852872294], [1.26878369, 6.251934463309913], [1.26656126573187, 6.252526160069728], [1.269235611991203, 6.255570928150322], [1.273270465626076, 6.257621861755992], [1.2780299, 6.258342055723597], [1.282789334373923, 6.257621861755992], [1.286824188008796, 6.255570928150322], [1.28952019101475, 6.252501503732806], [1.290466901373455, 6.248880893312884], [1.28952019101475, 6.245260307282138], [1.286824188008796, 6.242190941745307]]]}}, {"type": "Feature", "properties": {"name": null, "place": null, "locality_id": "tfd:reference-cell:106-06-002"}, "geometry": {"type": "Polygon", "coordinates": [[[1.254741257562517, 6.27122757742969], [1.2524343, 6.270878481865569], [1.250127342437483, 6.27122757742969], [1.249433547048336, 6.27158024637518], [1.25021927, 6.2745032832879], [1.25052863, 6.275610623286823], [1.25097579, 6.276793153285654], [1.25114104, 6.27723018328524], [1.258433028852405, 6.275577960887482], [1.258462670625451, 6.275464593286948], [1.258003788235246, 6.273709559786604], [1.256697001748762, 6.272221718733746], [1.254741257562517, 6.27122757742969]]]}}, {"type": "Feature", "properties": {"name": null, "place": null, "locality_id": "tfd:reference-cell:106-06-003"}, "geometry": {"type": "Polygon", "coordinates": [[[1.2655984, 6.266526719134199], [1.263291442437483, 6.266875811862726], [1.261335698251238, 6.267869945090803], [1.260028911764754, 6.269357774054635], [1.259570029374549, 6.271112793291198], [1.260028911764754, 6.272867818278944], [1.261335698251238, 6.274355661127366], [1.263291442437483, 6.275349808240033], [1.264870453168075, 6.275588750731967], [1.26624060475125, 6.275601725584414], [1.267093079268075, 6.27547272556733], [1.268303660992061, 6.275147341833597], [1.269861101748762, 6.274355661127366], [1.271167888235246, 6.272867818278944], [1.27162677062545, 6.271112793291198], [1.271167888235246, 6.269357774054635], [1.269861101748762, 6.267869945090803], [1.267905357562516, 6.266875811862726], [1.2655984, 6.266526719134199]]]}}, {"type": "Feature", "properties": {"name": null, "place": null, "locality_id": "tfd:reference-cell:106-04-003"}, "geometry": {"type": "Polygon", "coordinates": [[[1.273855111991203, 6.303929632722075], [1.277889965626077, 6.305980751814733], [1.2826494, 6.30670101093154], [1.287408834373923, 6.305980751814733], [1.290388751778128, 6.304465909118523], [1.28867944, 6.297282913265689], [1.28714934, 6.292672233270203], [1.28194255, 6.293541673269346], [1.273283746647499, 6.291198987240443], [1.27115910898525, 6.293618080295031], [1.270212398626545, 6.297238993265748], [1.27115910898525, 6.300859930820469], [1.273855111991203, 6.303929632722075]]]}}, {"type": "Feature", "properties": {"name": null, "place": null, "locality_id": "tfd:reference-cell:106-15-002"}, "geometry": {"type": "Polygon", "coordinates": [[[1.121887986670332, 6.319900618305647], [1.120206797655801, 6.319045962029291], [1.1182237, 6.318745846981527], [1.116240602344199, 6.319045962029291], [1.114559413329668, 6.319900618305647], [1.113436078743854, 6.321179704382021], [1.113041616094393, 6.32268849324099], [1.113436078743854, 6.324197286385824], [1.114559413329668, 6.325476382809194], [1.116240602344199, 6.326331049432549], [1.1182237, 6.32663116876618], [1.120206797655801, 6.326331049432549], [1.121887986670332, 6.325476382809194], [1.123011321256146, 6.324197286385824], [1.123405783905606, 6.32268849324099], [1.123011321256146, 6.321179704382021], [1.121887986670332, 6.319900618305647]]]}}, {"type": "Feature", "properties": {"name": null, "place": null, "locality_id": "tfd:reference-cell:106-14-002"}, "geometry": {"type": "Polygon", "coordinates": [[[1.083776668276522, 6.324628933938798], [1.0822792, 6.324402309941645], [1.080781731723478, 6.324628933938798], [1.079512239417472, 6.325274305010974], [1.078663991777596, 6.326240172542244], [1.078366126817637, 6.327379493236413], [1.078663991777596, 6.328518816376254], [1.079512239417472, 6.329484689811902], [1.080781731723478, 6.330130066788452], [1.0822792, 6.330356693231277], [1.083776668276522, 6.330130066788452], [1.085046160582528, 6.329484689811902], [1.085894408222404, 6.328518816376254], [1.086192273182363, 6.327379493236413], [1.085894408222404, 6.326240172542244], [1.085046160582528, 6.325274305010974], [1.083776668276522, 6.324628933938798]]]}}, {"type": "Feature", "properties": {"name": null, "place": null, "locality_id": "tfd:reference-cell:106-14-003"}, "geometry": {"type": "Polygon", "coordinates": [[[1.0847639, 6.308227453712806], [1.082815875519642, 6.30852225507811], [1.081164420107533, 6.309361779232971], [1.080060952879686, 6.310618218394811], [1.079673466718585, 6.31210029325128], [1.080060952879686, 6.313582372236207], [1.081164420107533, 6.31483882136502], [1.082815875519642, 6.315678355486856], [1.0847639, 6.315973160980615], [1.086711924480357, 6.315678355486856], [1.088363379892467, 6.31483882136502], [1.089466847120314, 6.313582372236207], [1.089854333281415, 6.31210029325128], [1.089466847120314, 6.310618218394811], [1.088363379892467, 6.309361779232971], [1.086711924480357, 6.30852225507811], [1.0847639, 6.308227453712806]]]}}, {"type": "Feature", "properties": {"name": null, "place": null, "locality_id": "tfd:reference-cell:106-14-006"}, "geometry": {"type": "Polygon", "coordinates": [[[1.086192880214237, 6.344406404909653], [1.085314330721594, 6.34485304918793], [1.084727302718256, 6.345521500292819], [1.084521165896307, 6.346309993217979], [1.084727302718256, 6.347098487318066], [1.085314330721594, 6.347766941259478], [1.086192880214237, 6.348213588374278], [1.0872292, 6.348370430073091], [1.088265519785763, 6.348213588374278], [1.089144069278405, 6.347766941259478], [1.089731097281744, 6.347098487318066], [1.089937234103693, 6.346309993217979], [1.089731097281744, 6.345521500292819], [1.089144069278405, 6.34485304918793], [1.088265519785763, 6.344406404909653], [1.0872292, 6.344249564385767], [1.086192880214237, 6.344406404909653]]]}}, {"type": "Feature", "properties": {"name": null, "place": null, "locality_id": "tfd:reference-cell:106-14-007"}, "geometry": {"type": "Polygon", "coordinates": [[[1.057645668205342, 6.309203854331214], [1.056947430649475, 6.30999888688564], [1.056702242225903, 6.310936693252417], [1.056947430649475, 6.311874501271891], [1.057645668205342, 6.31266953781627], [1.058690654555162, 6.313200764913748], [1.0599233, 6.313387307189177], [1.061155945444838, 6.313200764913748], [1.062200931794657, 6.31266953781627], [1.062899169350525, 6.311874501271891], [1.063144357774097, 6.310936693252417], [1.062899169350525, 6.30999888688564], [1.062200931794657, 6.309203854331214], [1.061155945444838, 6.308672631223696], [1.0599233, 6.308486090600959], [1.058690654555162, 6.308672631223696], [1.057645668205342, 6.309203854331214]]]}}, {"type": "Feature", "properties": {"name": null, "place": null, "locality_id": "tfd:reference-cell:106-14-008"}, "geometry": {"type": "Polygon", "coordinates": [[[1.067713736410813, 6.321456990951585], [1.067546961118948, 6.322094893241548], [1.067713736410813, 6.322732796297545], [1.068188672260043, 6.32327358499591], [1.068899463988897, 6.323634928758672], [1.0697379, 6.323761815872578], [1.070576336011103, 6.323634928758672], [1.071287127739957, 6.32327358499591], [1.071762063589187, 6.322732796297545], [1.071928838881052, 6.322094893241548], [1.071762063589187, 6.321456990951585], [1.071287127739957, 6.320916204102588], [1.070576336011103, 6.320554862189198], [1.0697379, 6.320427975841326], [1.068899463988897, 6.320554862189198], [1.068188672260043, 6.320916204102588], [1.067713736410813, 6.321456990951585]]]}}, {"type": "Feature", "properties": {"name": null, "place": null, "locality_id": "tfd:reference-cell:106-14-009"}, "geometry": {"type": "Polygon", "coordinates": [[[1.09515656550391, 6.329548193234278], [1.095157542471752, 6.329551930113659], [1.095160324640782, 6.329555098087052], [1.095164488450984, 6.329557214859208], [1.0951694, 6.329557958170747], [1.095174311549017, 6.329557214859208], [1.095178475359219, 6.329555098087052], [1.095181257528248, 6.329551930113659], [1.09518223449609, 6.329548193234278], [1.095181257528248, 6.329544456354921], [1.095178475359219, 6.329541288381593], [1.095174311549017, 6.329539171609498], [1.0951694, 6.32953842829799], [1.095164488450984, 6.329539171609498], [1.095160324640782, 6.329541288381593], [1.095157542471752, 6.329544456354921], [1.09515656550391, 6.329548193234278]]]}}, {"type": "Feature", "properties": {"name": null, "place": null, "locality_id": "tfd:reference-cell:106-14-010"}, "geometry": {"type": "Polygon", "coordinates": [[[1.086988752440457, 6.342118507628877], [1.087411713289139, 6.342600132244156], [1.088044718932659, 6.342921943767742], [1.0887914, 6.343034948993389], [1.089538081067341, 6.342921943767742], [1.090171086710861, 6.342600132244156], [1.090594047559543, 6.342118507628877], [1.090742571658325, 6.341550393222612], [1.090594047559543, 6.340982279425828], [1.090171086710861, 6.340500656281953], [1.089538081067341, 6.340178846229771], [1.0887914, 6.340065841613599], [1.088044718932659, 6.340178846229771], [1.087411713289139, 6.340500656281953], [1.086988752440457, 6.340982279425828], [1.086840228341675, 6.341550393222612], [1.086988752440457, 6.342118507628877]]]}}, {"type": "Feature", "properties": {"name": null, "place": null, "locality_id": "tfd:reference-cell:106-14-012"}, "geometry": {"type": "Polygon", "coordinates": [[[1.065202265936047, 6.328683306750264], [1.065717380703087, 6.328945177253225], [1.066325, 6.329037133975788], [1.066932619296913, 6.328945177253225], [1.067447734063953, 6.328683306750264], [1.067791922747367, 6.328291390087893], [1.067912785740181, 6.327829093235974], [1.067791922747367, 6.327366796786754], [1.067447734063953, 6.326974881096577], [1.066932619296913, 6.32671301156581], [1.066325, 6.326621055245945], [1.065717380703087, 6.32671301156581], [1.065202265936047, 6.326974881096577], [1.064858077252633, 6.327366796786754], [1.064737214259819, 6.327829093235974], [1.064858077252633, 6.328291390087893], [1.065202265936047, 6.328683306750264]]]}}, {"type": "Feature", "properties": {"name": null, "place": null, "locality_id": "tfd:reference-cell:106-14-013"}, "geometry": {"type": "Polygon", "coordinates": [[[1.051096643479574, 6.315915761393009], [1.051353, 6.315954557274116], [1.051609356520426, 6.315915761393009], [1.051826685084496, 6.315805280086412], [1.051971899388416, 6.315639933169178], [1.052022891870787, 6.315444893248017], [1.051971899388416, 6.315249853398394], [1.051826685084496, 6.315084506653862], [1.051609356520426, 6.314974025519967], [1.051353, 6.314935229710398], [1.051096643479574, 6.314974025519967], [1.050879314915504, 6.315084506653862], [1.050734100611584, 6.315249853398394], [1.050683108129212, 6.315444893248017], [1.050734100611584, 6.315639933169178], [1.050879314915504, 6.315805280086412], [1.051096643479574, 6.315915761393009]]]}}, {"type": "Feature", "properties": {"name": null, "place": null, "locality_id": "tfd:reference-cell:106-14-014"}, "geometry": {"type": "Polygon", "coordinates": [[[1.062954319632912, 6.306870733997868], [1.064301083592886, 6.307555364775795], [1.0658897, 6.307795775343194], [1.067478316407113, 6.307555364775795], [1.068825080367088, 6.306870733997868], [1.069724959275461, 6.305846113274754], [1.070040954725859, 6.304637493258543], [1.069724959275461, 6.303428875984582], [1.068825080367088, 6.302404261881835], [1.067478316407113, 6.301719637724277], [1.0658897, 6.301479229899122], [1.064301083592886, 6.301719637724277], [1.063152823555161, 6.302303352844312], [1.06314040660261, 6.302312277414766], [1.062854851417058, 6.302517517619505], [1.062054440724538, 6.303428875984582], [1.061738445274141, 6.304637493258543], [1.062054440724538, 6.305846113274754], [1.062954319632912, 6.306870733997868]]]}}, {"type": "Feature", "properties": {"name": null, "place": null, "locality_id": "tfd:reference-cell:106-14-016"}, "geometry": {"type": "Polygon", "coordinates": [[[1.092836979749632, 6.333097753172447], [1.093361725443449, 6.332830984478064], [1.093712349306397, 6.332431737163463], [1.093835472033757, 6.33196079323196], [1.093712349306397, 6.331489849718635], [1.093361725443449, 6.331090603413605], [1.092836979749632, 6.33082383572879], [1.092218, 6.330730159407132], [1.091599020250367, 6.33082383572879], [1.091074274556551, 6.331090603413605], [1.090723650693603, 6.331489849718635], [1.090600527966243, 6.33196079323196], [1.090723650693603, 6.332431737163463], [1.091074274556551, 6.332830984478064], [1.091599020250367, 6.333097753172447], [1.092218, 6.333191429912284], [1.092836979749632, 6.333097753172447]]]}}, {"type": "Feature", "properties": {"name": null, "place": null, "locality_id": "tfd:reference-cell:106-14-017"}, "geometry": {"type": "Polygon", "coordinates": [[[1.073511311890642, 6.337065687520669], [1.074022539936101, 6.336483559374072], [1.074202059352521, 6.33579689322822], [1.074022539936101, 6.335110227971934], [1.073511311890643, 6.334528101972943], [1.072746205051773, 6.334139138172079], [1.0718437, 6.334002552316604], [1.070941194948227, 6.334139138172079], [1.070176088109358, 6.334528101972943], [1.069664860063899, 6.335110227971934], [1.069485340647479, 6.33579689322822], [1.069664860063899, 6.336483559374072], [1.070176088109358, 6.337065687520669], [1.070941194948227, 6.337454653469136], [1.0718437, 6.337591240214176], [1.072746205051773, 6.337454653469136], [1.073511311890642, 6.337065687520669]]]}}, {"type": "Feature", "properties": {"name": null, "place": null, "locality_id": "tfd:reference-cell:106-14-018"}, "geometry": {"type": "Polygon", "coordinates": [[[1.095689658523909, 6.335068274518203], [1.095816110655611, 6.334584593229398], [1.095689658523909, 6.33410091238188], [1.095329553319562, 6.333690867904423], [1.09479061779557, 6.33341688512072], [1.0941549, 6.33332067519502], [1.093519182204429, 6.33341688512072], [1.092980246680437, 6.333690867904423], [1.09262014147609, 6.33410091238188], [1.092493689344388, 6.334584593229398], [1.09262014147609, 6.335068274518203], [1.092980246680437, 6.335478320061023], [1.093519182204429, 6.335752303910088], [1.0941549, 6.33584851427708], [1.09479061779557, 6.335752303910088], [1.095329553319562, 6.335478320061023], [1.095689658523909, 6.335068274518203]]]}}, {"type": "Feature", "properties": {"name": null, "place": null, "locality_id": "tfd:reference-cell:106-14-019"}, "geometry": {"type": "Polygon", "coordinates": [[[1.055983317877898, 6.315141793248322], [1.055878521469432, 6.314740960435456], [1.055580086547242, 6.31440115102141], [1.055133447122912, 6.314174097750977], [1.0546066, 6.314094367268249], [1.054079752877088, 6.314174097750977], [1.053633113452758, 6.31440115102141], [1.053334678530568, 6.314740960435456], [1.053229882122102, 6.315141793248322], [1.053334678530568, 6.31554262636331], [1.053633113452758, 6.315882436506747], [1.054079752877088, 6.31610949050657], [1.0546066, 6.316189221291423], [1.055133447122912, 6.31610949050657], [1.055580086547242, 6.315882436506747], [1.055878521469432, 6.31554262636331], [1.055983317877898, 6.315141793248322]]]}}, {"type": "Feature", "properties": {"name": null, "place": null, "locality_id": "tfd:reference-cell:106-14-020"}, "geometry": {"type": "Polygon", "coordinates": [[[1.110314090857794, 6.341222395179901], [1.109960008138422, 6.340819202962536], [1.109430085900151, 6.340549798706984], [1.108805, 6.340455196545488], [1.108179914099849, 6.340549798706984], [1.107649991861577, 6.340819202962536], [1.107295909142206, 6.341222395179901], [1.107171571825992, 6.341697993222467], [1.107295909142206, 6.342173591692177], [1.107649991861577, 6.342576784940764], [1.108179914099849, 6.342846190227536], [1.108805, 6.342940792816179], [1.109430085900151, 6.342846190227536], [1.109960008138422, 6.342576784940764], [1.110314090857794, 6.342173591692177], [1.110438428174008, 6.341697993222467], [1.110314090857794, 6.341222395179901]]]}}, {"type": "Feature", "properties": {"name": null, "place": null, "locality_id": "tfd:reference-cell:106-14-021"}, "geometry": {"type": "Polygon", "coordinates": [[[1.091051625443449, 6.333434999564315], [1.090526879749633, 6.333168230700268], [1.0899079, 6.333074553964531], [1.089288920250367, 6.333168230700268], [1.088764174556551, 6.333434999564315], [1.088413550693603, 6.333834247634286], [1.088290427966244, 6.334305193229651], [1.088413550693603, 6.334776139243352], [1.088764174556551, 6.335175388323282], [1.089288920250367, 6.335442158197281], [1.0899079, 6.335535835351355], [1.090526879749633, 6.335442158197281], [1.091051625443449, 6.335175388323282], [1.091402249306397, 6.334776139243352], [1.091525372033757, 6.334305193229651], [1.091402249306397, 6.333834247634286], [1.091051625443449, 6.333434999564315]]]}}, {"type": "Feature", "properties": {"name": null, "place": null, "locality_id": "tfd:reference-cell:106-14-022"}, "geometry": {"type": "Polygon", "coordinates": [[[1.110828985900151, 6.343310792716983], [1.1102039, 6.343216190062223], [1.109578814099849, 6.343310792716983], [1.109048891861577, 6.343580198377259], [1.108694809142206, 6.343983392697064], [1.108570471825991, 6.344458993219804], [1.108694809142206, 6.344934594169882], [1.109048891861577, 6.345337789521372], [1.109578814099849, 6.345607196213336], [1.1102039, 6.345701799295431], [1.110828985900151, 6.345607196213336], [1.111358908138423, 6.345337789521372], [1.111712990857793, 6.344934594169882], [1.111837328174008, 6.344458993219804], [1.111712990857793, 6.343983392697064], [1.111358908138423, 6.343580198377259], [1.110828985900151, 6.343310792716983]]]}}, {"type": "Feature", "properties": {"name": null, "place": null, "locality_id": "tfd:reference-cell:106-14-024"}, "geometry": {"type": "Polygon", "coordinates": [[[1.0661238, 6.323748861784376], [1.065516180703087, 6.323840817606792], [1.065001065936047, 6.324102685720894], [1.064656877252633, 6.324494599290771], [1.064536014259819, 6.324956893238754], [1.064656877252633, 6.325419187589247], [1.065001065936047, 6.325811102130864], [1.065516180703087, 6.326072971216704], [1.0661238, 6.326164927441628], [1.066731419296913, 6.326072971216704], [1.067246534063953, 6.325811102130864], [1.067590722747366, 6.325419187589247], [1.067711585740181, 6.324956893238754], [1.067590722747366, 6.324494599290771], [1.067246534063953, 6.324102685720894], [1.066731419296913, 6.323840817606792], [1.0661238, 6.323748861784376]]]}}, {"type": "Feature", "properties": {"name": null, "place": null, "locality_id": "tfd:reference-cell:106-14-026"}, "geometry": {"type": "Polygon", "coordinates": [[[1.09523605986926, 6.329056149870725], [1.095170409296428, 6.329089524873745], [1.095126542986095, 6.329139474099516], [1.095111139186359, 6.329198393234627], [1.095126542986095, 6.329257312376281], [1.095170409296428, 6.329307261617847], [1.09523605986926, 6.329340636636661], [1.0953135, 6.32935235638523], [1.09539094013074, 6.329340636636661], [1.095456590703572, 6.329307261617847], [1.095500457013905, 6.329257312376281], [1.095515860813641, 6.329198393234627], [1.095500457013905, 6.329139474099516], [1.095456590703572, 6.329089524873745], [1.09539094013074, 6.329056149870725], [1.0953135, 6.329044430128698], [1.09523605986926, 6.329056149870725]]]}}, {"type": "Feature", "properties": {"name": null, "place": null, "locality_id": "tfd:reference-cell:106-14-027"}, "geometry": {"type": "Polygon", "coordinates": [[[1.095158324640781, 6.329564488381267], [1.095155542471752, 6.329567656354733], [1.09515456550391, 6.329571393234252], [1.095155542471752, 6.3295751301138], [1.095158324640781, 6.32957829808733], [1.095162488450983, 6.329580414859579], [1.0951674, 6.329581158171147], [1.095172311549016, 6.329580414859579], [1.095176475359218, 6.32957829808733], [1.095179257528248, 6.3295751301138], [1.09518023449609, 6.329571393234252], [1.095179257528248, 6.329567656354733], [1.095176475359218, 6.329564488381267], [1.095172311549016, 6.329562371609079], [1.0951674, 6.329561628297538], [1.095162488450983, 6.329562371609079], [1.095158324640781, 6.329564488381267]]]}}, {"type": "Feature", "properties": {"name": null, "place": null, "locality_id": "tfd:reference-cell:106-14-028"}, "geometry": {"type": "Polygon", "coordinates": [[[1.091634252440457, 6.341010379395661], [1.091485728341675, 6.341578493222593], [1.091634252440457, 6.342146607659004], [1.092057213289139, 6.342628232299841], [1.092690218932659, 6.342950043840508], [1.0934369, 6.343063049072155], [1.094183581067341, 6.342950043840508], [1.094816586710861, 6.342628232299841], [1.095239547559543, 6.342146607659004], [1.095388071658325, 6.341578493222593], [1.095239547559543, 6.341010379395661], [1.094816586710861, 6.340528756226234], [1.094183581067341, 6.340206946156981], [1.0934369, 6.340093941534815], [1.092690218932659, 6.340206946156981], [1.092057213289139, 6.340528756226234], [1.091634252440457, 6.341010379395661]]]}}, {"type": "Feature", "properties": {"name": null, "place": null, "locality_id": "tfd:reference-cell:106-14-029"}, "geometry": {"type": "Polygon", "coordinates": [[[1.077845445235583, 6.301700593261394], [1.078102713748248, 6.302684588739607], [1.078835352487333, 6.303518781249397], [1.0799318238462, 6.304076171592267], [1.0812252, 6.304271901190217], [1.082518576153799, 6.304076171592267], [1.083615047512667, 6.303518781249397], [1.084347686251752, 6.302684588739607], [1.084604954764417, 6.301700593261394], [1.084347686251752, 6.300716599599989], [1.083615047512667, 6.299882411476363], [1.082518576153799, 6.299325025519656], [1.0812252, 6.299129297738517], [1.0799318238462, 6.299325025519656], [1.078835352487333, 6.299882411476363], [1.078102713748248, 6.300716599599989], [1.077845445235583, 6.301700593261394]]]}}, {"type": "Feature", "properties": {"name": null, "place": null, "locality_id": "tfd:reference-cell:106-14-031"}, "geometry": {"type": "Polygon", "coordinates": [[[1.076974868382438, 6.33428436175516], [1.077313076002144, 6.334669472320073], [1.077819239474773, 6.3349267951287], [1.0784163, 6.335017154912352], [1.079013360525227, 6.3349267951287], [1.079519523997856, 6.334669472320073], [1.079857731617562, 6.33428436175516], [1.079976494340104, 6.333830093230119], [1.079857731617562, 6.333375825094283], [1.079519523997856, 6.33299071546899], [1.079013360525227, 6.332733393599982], [1.0784163, 6.332643034205534], [1.077819239474773, 6.332733393599982], [1.077313076002144, 6.33299071546899], [1.076974868382438, 6.333375825094283], [1.076856105659896, 6.333830093230119], [1.076974868382438, 6.33428436175516]]]}}, {"type": "Feature", "properties": {"name": null, "place": null, "locality_id": "tfd:reference-cell:106-14-032"}, "geometry": {"type": "Polygon", "coordinates": [[[1.073202152487333, 6.307890696167961], [1.074298623846201, 6.3084480910865], [1.075592, 6.308643822291309], [1.0768853761538, 6.3084480910865], [1.077981847512667, 6.307890696167961], [1.078714486251753, 6.307056496810979], [1.078971754764417, 6.306072493257154], [1.078714486251753, 6.305088491521437], [1.077981847512667, 6.30425429655376], [1.0768853761538, 6.303696906024528], [1.075592, 6.303501176637829], [1.074298623846201, 6.303696906024528], [1.073202152487333, 6.30425429655376], [1.072469513748248, 6.305088491521437], [1.072212245235583, 6.306072493257154], [1.072469513748248, 6.307056496810979], [1.073202152487333, 6.307890696167961]]]}}, {"type": "Feature", "properties": {"name": null, "place": null, "locality_id": "tfd:reference-cell:106-14-033"}, "geometry": {"type": "Polygon", "coordinates": [[[1.062405528068811, 6.319335762125372], [1.06379, 6.319545283469083], [1.065174471931189, 6.319335762125372], [1.066348170561124, 6.318739096272065], [1.067132410913001, 6.317846123968998], [1.067407799502404, 6.31679279324671], [1.067132410913001, 6.315739464611315], [1.066348170561124, 6.314846497346458], [1.065174471931189, 6.314249836531358], [1.06379, 6.314040317274542], [1.062405528068811, 6.314249836531358], [1.061231829438876, 6.314846497346458], [1.060447589086999, 6.315739464611315], [1.060172200497595, 6.31679279324671], [1.060447589086999, 6.317846123968998], [1.061231829438876, 6.318739096272065], [1.062405528068811, 6.319335762125372]]]}}, {"type": "Feature", "properties": {"name": null, "place": null, "locality_id": "tfd:reference-cell:106-14-035"}, "geometry": {"type": "Polygon", "coordinates": [[[1.0752236, 6.333572351679153], [1.075820660525227, 6.333481992141746], [1.076326823997856, 6.33322467003434], [1.076665031617562, 6.332839560518823], [1.076783794340104, 6.332385293231545], [1.076665031617562, 6.331931026333382], [1.076326823997856, 6.331545917757263], [1.075820660525227, 6.331288596589258], [1.0752236, 6.331198237440961], [1.074626539474772, 6.331288596589258], [1.074120376002144, 6.331545917757263], [1.073782168382438, 6.331931026333382], [1.073663405659896, 6.332385293231545], [1.073782168382438, 6.332839560518823], [1.074120376002144, 6.33322467003434], [1.074626539474772, 6.333481992141746], [1.0752236, 6.333572351679153]]]}}, {"type": "Feature", "properties": {"name": null, "place": null, "locality_id": "tfd:reference-cell:106-14-036"}, "geometry": {"type": "Polygon", "coordinates": [[[1.051564730085755, 6.317925517664825], [1.051885378069618, 6.317762512214831], [1.052099628202728, 6.317518557412409], [1.052174862844499, 6.317230793246289], [1.052099628202728, 6.316943029235936], [1.051885378069618, 6.316699074809565], [1.051564730085755, 6.316536069735626], [1.0511865, 6.316478829977468], [1.050808269914245, 6.316536069735626], [1.050487621930382, 6.316699074809565], [1.050273371797273, 6.316943029235936], [1.050198137155501, 6.317230793246289], [1.050273371797273, 6.317518557412409], [1.050487621930382, 6.317762512214831], [1.050808269914245, 6.317925517664825], [1.0511865, 6.317982757578752], [1.051564730085755, 6.317925517664825]]]}}, {"type": "Feature", "properties": {"name": null, "place": null, "locality_id": "tfd:reference-cell:106-14-037"}, "geometry": {"type": "Polygon", "coordinates": [[[1.096955432865768, 6.32594968644116], [1.097508697123908, 6.325319705484329], [1.097702977695229, 6.324576593239118], [1.097508697123908, 6.323833482033872], [1.096955432865768, 6.323203503587743], [1.096127414388759, 6.322782565864153], [1.0951507, 6.322634752271568], [1.094173985611241, 6.322782565864153], [1.093345967134232, 6.323203503587743], [1.092792702876093, 6.323833482033872], [1.092598422304771, 6.324576593239118], [1.092792702876093, 6.325319705484329], [1.093345967134232, 6.32594968644116], [1.094173985611241, 6.326370626675453], [1.0951507, 6.326518441308004], [1.096127414388759, 6.326370626675453], [1.096955432865768, 6.32594968644116]]]}}, {"type": "Feature", "properties": {"name": null, "place": null, "locality_id": "tfd:reference-cell:106-14-038"}, "geometry": {"type": "Polygon", "coordinates": [[[1.049930840077189, 6.31453972033345], [1.049943000611584, 6.314586232783737], [1.050088214915504, 6.314751579373351], [1.050305543479573, 6.314862060461034], [1.0505619, 6.314900856265265], [1.050818256520426, 6.314862060461034], [1.051035585084495, 6.314751579373351], [1.051180799388416, 6.314586232783737], [1.051231791870788, 6.314391193249024], [1.051180799388416, 6.314196153785833], [1.051035585084495, 6.314030807368893], [1.050818256520426, 6.313920326453886], [1.050628663003324, 6.313891634304879], [1.049930840077189, 6.31453972033345]]]}}]}